,name,id,postalCode,state,country,cc,lat,lng,categories,primary_category_name,primary_category_id
0,Rennes,50bbc15ee4b0cfba2d7ebbb5,35000,Bretagne,France,FR,48.11083497597432,-1.678194704020619,"[{'id': '50aa9e094b90af0d42d5de0d', 'name': 'City', 'pluralName': 'Cities', 'shortName': 'City', 'icon': {'prefix': 'https://ss3.4sqi.net/img/categories_v2/parks_outdoors/neighborhood_', 'suffix': '.png'}, 'primary': True}]",City,50aa9e094b90af0d42d5de0d
1,Cesson-Sévigné,4c509909375c0f47cf239492,35510,Bretagne,France,FR,48.11641730074293,-1.6062446234358196,"[{'id': '50aa9e094b90af0d42d5de0d', 'name': 'City', 'pluralName': 'Cities', 'shortName': 'City', 'icon': {'prefix': 'https://ss3.4sqi.net/img/categories_v2/parks_outdoors/neighborhood_', 'suffix': '.png'}, 'primary': True}]",City,50aa9e094b90af0d42d5de0d
2,Châteaugiron,4bdd4b46d33f2d7fb1b08a3c,35410,Bretagne,France,FR,48.044032586412726,-1.4921853195196428,"[{'id': '50aa9e094b90af0d42d5de0d', 'name': 'City', 'pluralName': 'Cities', 'shortName': 'City', 'icon': {'prefix': 'https://ss3.4sqi.net/img/categories_v2/parks_outdoors/neighborhood_', 'suffix': '.png'}, 'primary': True}]",City,50aa9e094b90af0d42d5de0d
3,Chantepie,4e2071811f6effe84f6687b8,35135,Bretagne,France,FR,48.090247433237955,-1.618160729230902,"[{'id': '50aa9e094b90af0d42d5de0d', 'name': 'City', 'pluralName': 'Cities', 'shortName': 'City', 'icon': {'prefix': 'https://ss3.4sqi.net/img/categories_v2/parks_outdoors/neighborhood_', 'suffix': '.png'}, 'primary': True}]",City,50aa9e094b90af0d42d5de0d
4,Vern-sur-Seiche,4c31ffd83896e21e06c4e790,35770,Bretagne,France,FR,48.046325652670355,-1.6022180976828968,"[{'id': '50aa9e094b90af0d42d5de0d', 'name': 'City', 'pluralName': 'Cities', 'shortName': 'City', 'icon': {'prefix': 'https://ss3.4sqi.net/img/categories_v2/parks_outdoors/neighborhood_', 'suffix': '.png'}, 'primary': True}]",City,50aa9e094b90af0d42d5de0d
5,Domloup,4f2c8b8ae4b067066c386fb8,35410,Bretagne,France,FR,48.05580358210023,-1.5194650116375985,"[{'id': '50aa9e094b90af0d42d5de0d', 'name': 'City', 'pluralName': 'Cities', 'shortName': 'City', 'icon': {'prefix': 'https://ss3.4sqi.net/img/categories_v2/parks_outdoors/neighborhood_', 'suffix': '.png'}, 'primary': True}]",City,50aa9e094b90af0d42d5de0d
6,Martigné-Ferchaud (Mazhinieg-Houarnruz),51053a94e4b0059ce50feeb1,35640,Bretagne,France,FR,47.81552082713401,-1.3408154408467603,"[{'id': '50aa9e094b90af0d42d5de0d', 'name': 'City', 'pluralName': 'Cities', 'shortName': 'City', 'icon': {'prefix': 'https://ss3.4sqi.net/img/categories_v2/parks_outdoors/neighborhood_', 'suffix': '.png'}, 'primary': True}]",City,50aa9e094b90af0d42d5de0d
7,Saint-Jacques-de-la-Lande,4df63d9214954f21cf3732cd,35136,Bretagne,France,FR,48.078328247095214,-1.716569574011934,"[{'id': '50aa9e094b90af0d42d5de0d', 'name': 'City', 'pluralName': 'Cities', 'shortName': 'City', 'icon': {'prefix': 'https://ss3.4sqi.net/img/categories_v2/parks_outdoors/neighborhood_', 'suffix': '.png'}, 'primary': True}]",City,50aa9e094b90af0d42d5de0d
8,Betton,506366e7e4b07ce7bacb44c7,35830,Bretagne,France,FR,48.18293611726685,-1.636862508488489,"[{'id': '50aa9e094b90af0d42d5de0d', 'name': 'City', 'pluralName': 'Cities', 'shortName': 'City', 'icon': {'prefix': 'https://ss3.4sqi.net/img/categories_v2/parks_outdoors/neighborhood_', 'suffix': '.png'}, 'primary': True}]",City,50aa9e094b90af0d42d5de0d
9,Dinan,4ba5f931f964a520132c39e3,22100,Bretagne,France,FR,48.44994127875995,-2.033522129058838,"[{'id': '50aa9e094b90af0d42d5de0d', 'name': 'City', 'pluralName': 'Cities', 'shortName': 'City', 'icon': {'prefix': 'https://ss3.4sqi.net/img/categories_v2/parks_outdoors/neighborhood_', 'suffix': '.png'}, 'primary': True}]",City,50aa9e094b90af0d42d5de0d
10,Piré-sur-Seiche,4d0e23ecbdbfa35d3c6e6d72,35150,Bretagne,France,FR,48.00931918027418,-1.4307208580749335,"[{'id': '50aa9e094b90af0d42d5de0d', 'name': 'City', 'pluralName': 'Cities', 'shortName': 'City', 'icon': {'prefix': 'https://ss3.4sqi.net/img/categories_v2/parks_outdoors/neighborhood_', 'suffix': '.png'}, 'primary': True}]",City,50aa9e094b90af0d42d5de0d
11,Vitré,52ab7aba11d2a981b4c5f7cd,35500,Bretagne,France,FR,48.121929140259844,-1.2083244323730469,"[{'id': '50aa9e094b90af0d42d5de0d', 'name': 'City', 'pluralName': 'Cities', 'shortName': 'City', 'icon': {'prefix': 'https://ss3.4sqi.net/img/categories_v2/parks_outdoors/neighborhood_', 'suffix': '.png'}, 'primary': True}]",City,50aa9e094b90af0d42d5de0d
12,Breteil,4fd63ec3e4b08568eace2845,35160,Bretagne,France,FR,48.14113824798832,-1.9152848702711118,"[{'id': '50aa9e094b90af0d42d5de0d', 'name': 'City', 'pluralName': 'Cities', 'shortName': 'City', 'icon': {'prefix': 'https://ss3.4sqi.net/img/categories_v2/parks_outdoors/neighborhood_', 'suffix': '.png'}, 'primary': True}]",City,50aa9e094b90af0d42d5de0d
13,Thorigné-Fouillard,5052ce9be4b0c2107361454a,35235,Bretagne,France,FR,48.15884451796053,-1.578963139895634,"[{'id': '50aa9e094b90af0d42d5de0d', 'name': 'City', 'pluralName': 'Cities', 'shortName': 'City', 'icon': {'prefix': 'https://ss3.4sqi.net/img/categories_v2/parks_outdoors/neighborhood_', 'suffix': '.png'}, 'primary': True}]",City,50aa9e094b90af0d42d5de0d
14,Fougères,51388da6e4b0515b311dbaf2,35300,Bretagne,France,FR,48.35439571195968,-1.2082836960693388,"[{'id': '50aa9e094b90af0d42d5de0d', 'name': 'City', 'pluralName': 'Cities', 'shortName': 'City', 'icon': {'prefix': 'https://ss3.4sqi.net/img/categories_v2/parks_outdoors/neighborhood_', 'suffix': '.png'}, 'primary': True}]",City,50aa9e094b90af0d42d5de0d
15,Montfort-sur-Meu,4f03277a490182a1aab74b5a,35160,Bretagne,France,FR,48.135219756144586,-1.956860103276521,"[{'id': '50aa9e094b90af0d42d5de0d', 'name': 'City', 'pluralName': 'Cities', 'shortName': 'City', 'icon': {'prefix': 'https://ss3.4sqi.net/img/categories_v2/parks_outdoors/neighborhood_', 'suffix': '.png'}, 'primary': True}]",City,50aa9e094b90af0d42d5de0d
16,Nouvoitou (Neveztell),5336c5c9498ee260ad0aeaca,35410,Bretagne,France,FR,48.04224182272659,-1.538133381903514,"[{'id': '50aa9e094b90af0d42d5de0d', 'name': 'City', 'pluralName': 'Cities', 'shortName': 'City', 'icon': {'prefix': 'https://ss3.4sqi.net/img/categories_v2/parks_outdoors/neighborhood_', 'suffix': '.png'}, 'primary': True}]",City,50aa9e094b90af0d42d5de0d
17,Montauban-de-Bretagne (Menezalban),5052ed04e4b0feb298f52c92,35360,Bretagne,France,FR,48.20152869830629,-2.047104839687607,"[{'id': '50aa9e094b90af0d42d5de0d', 'name': 'City', 'pluralName': 'Cities', 'shortName': 'City', 'icon': {'prefix': 'https://ss3.4sqi.net/img/categories_v2/parks_outdoors/neighborhood_', 'suffix': '.png'}, 'primary': True}]",City,50aa9e094b90af0d42d5de0d
18,Janzé,4c95ef7972dd224b0304a891,35150,Bretagne,France,FR,47.95963161546798,-1.4966358439315115,"[{'id': '50aa9e094b90af0d42d5de0d', 'name': 'City', 'pluralName': 'Cities', 'shortName': 'City', 'icon': {'prefix': 'https://ss3.4sqi.net/img/categories_v2/parks_outdoors/neighborhood_', 'suffix': '.png'}, 'primary': True}]",City,50aa9e094b90af0d42d5de0d
19,Bourgon,533a54aa498ebb38bff66372,,Pays de la Loire,France,FR,48.16667,-1.06667,"[{'id': '50aa9e094b90af0d42d5de0d', 'name': 'City', 'pluralName': 'Cities', 'shortName': 'City', 'icon': {'prefix': 'https://ss3.4sqi.net/img/categories_v2/parks_outdoors/neighborhood_', 'suffix': '.png'}, 'primary': True}]",City,50aa9e094b90af0d42d5de0d
20,Torce,518a9d76498e023ac700a1b6,,,France,FR,48.07347733331207,-1.268102186934906,"[{'id': '50aa9e094b90af0d42d5de0d', 'name': 'City', 'pluralName': 'Cities', 'shortName': 'City', 'icon': {'prefix': 'https://ss3.4sqi.net/img/categories_v2/parks_outdoors/neighborhood_', 'suffix': '.png'}, 'primary': True}]",City,50aa9e094b90af0d42d5de0d
21,Lanvallay,4d860b24e83fa143ecff86a1,22100,Bretagne,France,FR,48.45274866702247,-2.025976331156524,"[{'id': '50aa9e094b90af0d42d5de0d', 'name': 'City', 'pluralName': 'Cities', 'shortName': 'City', 'icon': {'prefix': 'https://ss3.4sqi.net/img/categories_v2/parks_outdoors/neighborhood_', 'suffix': '.png'}, 'primary': True}]",City,50aa9e094b90af0d42d5de0d
22,Châteaubriant,522b446e11d2dbee9fa79c5e,44110,Pays de la Loire,France,FR,47.71682152892511,-1.383225917816162,"[{'id': '50aa9e094b90af0d42d5de0d', 'name': 'City', 'pluralName': 'Cities', 'shortName': 'City', 'icon': {'prefix': 'https://ss3.4sqi.net/img/categories_v2/parks_outdoors/neighborhood_', 'suffix': '.png'}, 'primary': True}]",City,50aa9e094b90af0d42d5de0d
23,Hédé-Bazouges,4db3fd0c0437fa536a218b4c,35630,Bretagne,France,FR,48.29677685647849,-1.7998959672629948,"[{'id': '50aa9e094b90af0d42d5de0d', 'name': 'City', 'pluralName': 'Cities', 'shortName': 'City', 'icon': {'prefix': 'https://ss3.4sqi.net/img/categories_v2/parks_outdoors/neighborhood_', 'suffix': '.png'}, 'primary': True}]",City,50aa9e094b90af0d42d5de0d
24,Guer,4c63b7cfe1621b8d98a32653,56380,Bretagne,France,FR,47.9059329846565,-2.1215117916995614,"[{'id': '50aa9e094b90af0d42d5de0d', 'name': 'City', 'pluralName': 'Cities', 'shortName': 'City', 'icon': {'prefix': 'https://ss3.4sqi.net/img/categories_v2/parks_outdoors/neighborhood_', 'suffix': '.png'}, 'primary': True}]",City,50aa9e094b90af0d42d5de0d
25,Pont Réan,4bb8976498c7ef3b2f323102,,,France,FR,47.997104062934106,-1.7788313191821903,"[{'id': '50aa9e094b90af0d42d5de0d', 'name': 'City', 'pluralName': 'Cities', 'shortName': 'City', 'icon': {'prefix': 'https://ss3.4sqi.net/img/categories_v2/parks_outdoors/neighborhood_', 'suffix': '.png'}, 'primary': True}]",City,50aa9e094b90af0d42d5de0d
26,Argentré-du-Plessis (Argantred-ar-Genkiz),4e2093311495f18f0345639c,35370,Bretagne,France,FR,48.05868684745951,-1.1479490554467064,"[{'id': '50aa9e094b90af0d42d5de0d', 'name': 'City', 'pluralName': 'Cities', 'shortName': 'City', 'icon': {'prefix': 'https://ss3.4sqi.net/img/categories_v2/parks_outdoors/neighborhood_', 'suffix': '.png'}, 'primary': True}]",City,50aa9e094b90af0d42d5de0d
27,Pleumeleuc,4bc1e9b5920eb7131b471b2c,35137,Bretagne,France,FR,48.18208845759364,-1.9238083174330116,"[{'id': '50aa9e094b90af0d42d5de0d', 'name': 'City', 'pluralName': 'Cities', 'shortName': 'City', 'icon': {'prefix': 'https://ss3.4sqi.net/img/categories_v2/parks_outdoors/neighborhood_', 'suffix': '.png'}, 'primary': True}]",City,50aa9e094b90af0d42d5de0d
28,Saint-Pierre-la-Cour,51c56e17498e0d93acbcf1dd,,,France,FR,48.11099584260662,-1.005220660268805,"[{'id': '50aa9e094b90af0d42d5de0d', 'name': 'City', 'pluralName': 'Cities', 'shortName': 'City', 'icon': {'prefix': 'https://ss3.4sqi.net/img/categories_v2/parks_outdoors/neighborhood_', 'suffix': '.png'}, 'primary': True}]",City,50aa9e094b90af0d42d5de0d
29,Le Rheu,4ca88a7d44a8224b5d671840,35650,Bretagne,France,FR,48.09813342951822,-1.796987001924063,"[{'id': '50aa9e094b90af0d42d5de0d', 'name': 'City', 'pluralName': 'Cities', 'shortName': 'City', 'icon': {'prefix': 'https://ss3.4sqi.net/img/categories_v2/parks_outdoors/neighborhood_', 'suffix': '.png'}, 'primary': True}]",City,50aa9e094b90af0d42d5de0d
30,Étrelles (Stredell),5002c61de4b09fa8c4186bee,35370,Bretagne,France,FR,48.059926,-1.193969,"[{'id': '50aa9e094b90af0d42d5de0d', 'name': 'City', 'pluralName': 'Cities', 'shortName': 'City', 'icon': {'prefix': 'https://ss3.4sqi.net/img/categories_v2/parks_outdoors/neighborhood_', 'suffix': '.png'}, 'primary': True}]",City,50aa9e094b90af0d42d5de0d
31,Maure-de-Bretagne,4fb61438e4b012942eff58b6,35330,Bretagne,France,FR,47.90573272139494,-2.0354003846596407,"[{'id': '50aa9e094b90af0d42d5de0d', 'name': 'City', 'pluralName': 'Cities', 'shortName': 'City', 'icon': {'prefix': 'https://ss3.4sqi.net/img/categories_v2/parks_outdoors/neighborhood_', 'suffix': '.png'}, 'primary': True}]",City,50aa9e094b90af0d42d5de0d
32,Gévezé,4eee5e77be7b6d62019dcda4,35850,Bretagne,France,FR,48.21613374523459,-1.789289377040272,"[{'id': '50aa9e094b90af0d42d5de0d', 'name': 'City', 'pluralName': 'Cities', 'shortName': 'City', 'icon': {'prefix': 'https://ss3.4sqi.net/img/categories_v2/parks_outdoors/neighborhood_', 'suffix': '.png'}, 'primary': True}]",City,50aa9e094b90af0d42d5de0d
33,Noyal-sur-Vilaine,4d246cdddaa93704c410c581,35530,Bretagne,France,FR,48.107224599798435,-1.5317613636006286,"[{'id': '50aa9e094b90af0d42d5de0d', 'name': 'City', 'pluralName': 'Cities', 'shortName': 'City', 'icon': {'prefix': 'https://ss3.4sqi.net/img/categories_v2/parks_outdoors/neighborhood_', 'suffix': '.png'}, 'primary': True}]",City,50aa9e094b90af0d42d5de0d
34,Plélan-le-Grand,4c1cc2ef8b3aa5932d54995f,35380,Bretagne,France,FR,48.00186076275763,-2.097649188537673,"[{'id': '50aa9e094b90af0d42d5de0d', 'name': 'City', 'pluralName': 'Cities', 'shortName': 'City', 'icon': {'prefix': 'https://ss3.4sqi.net/img/categories_v2/parks_outdoors/neighborhood_', 'suffix': '.png'}, 'primary': True}]",City,50aa9e094b90af0d42d5de0d
35,Corps Nuds (Kornuz),4c88d19e0f3c236a4e95f55c,35150,Bretagne,France,FR,47.98628699040824,-1.5788001028091792,"[{'id': '50aa9e094b90af0d42d5de0d', 'name': 'City', 'pluralName': 'Cities', 'shortName': 'City', 'icon': {'prefix': 'https://ss3.4sqi.net/img/categories_v2/parks_outdoors/neighborhood_', 'suffix': '.png'}, 'primary': True}]",City,50aa9e094b90af0d42d5de0d
36,La Mézière (Magoer),4da17e30b521224b8d8cf5ed,35520,Bretagne,France,FR,48.19717344380515,-1.7364183089766678,"[{'id': '50aa9e094b90af0d42d5de0d', 'name': 'City', 'pluralName': 'Cities', 'shortName': 'City', 'icon': {'prefix': 'https://ss3.4sqi.net/img/categories_v2/parks_outdoors/neighborhood_', 'suffix': '.png'}, 'primary': True}]",City,50aa9e094b90af0d42d5de0d
37,Saint-Pierre-de-Plesguen,4d8f8728d265236a94be2217,35720,Bretagne,France,FR,48.44530016252355,-1.9146605585592515,"[{'id': '50aa9e094b90af0d42d5de0d', 'name': 'City', 'pluralName': 'Cities', 'shortName': 'City', 'icon': {'prefix': 'https://ss3.4sqi.net/img/categories_v2/parks_outdoors/neighborhood_', 'suffix': '.png'}, 'primary': True}]",City,50aa9e094b90af0d42d5de0d
38,Sens-de-Bretagne,53fc58ee498e016a83aff0e3,35490,Bretagne,France,FR,48.332959013188486,-1.4881013454762713,"[{'id': '50aa9e094b90af0d42d5de0d', 'name': 'City', 'pluralName': 'Cities', 'shortName': 'City', 'icon': {'prefix': 'https://ss3.4sqi.net/img/categories_v2/parks_outdoors/neighborhood_', 'suffix': '.png'}, 'primary': True}]",City,50aa9e094b90af0d42d5de0d
39,Bédée,4d96cbef744f37041c2dc457,35137,Bretagne,France,FR,48.179256908154464,-1.9309886280203268,"[{'id': '50aa9e094b90af0d42d5de0d', 'name': 'City', 'pluralName': 'Cities', 'shortName': 'City', 'icon': {'prefix': 'https://ss3.4sqi.net/img/categories_v2/parks_outdoors/neighborhood_', 'suffix': '.png'}, 'primary': True}]",City,50aa9e094b90af0d42d5de0d
40,Trélivan,4e181ec5c65b6bfb590b6f3f,22600,Bretagne,France,FR,48.43494963211762,-2.114760736104399,"[{'id': '50aa9e094b90af0d42d5de0d', 'name': 'City', 'pluralName': 'Cities', 'shortName': 'City', 'icon': {'prefix': 'https://ss3.4sqi.net/img/categories_v2/parks_outdoors/neighborhood_', 'suffix': '.png'}, 'primary': True}]",City,50aa9e094b90af0d42d5de0d
41,Broons,4d37ebbe3ffba143a1235756,22250,Bretagne,France,FR,48.31792796542629,-2.2592806978074935,"[{'id': '50aa9e094b90af0d42d5de0d', 'name': 'City', 'pluralName': 'Cities', 'shortName': 'City', 'icon': {'prefix': 'https://ss3.4sqi.net/img/categories_v2/parks_outdoors/neighborhood_', 'suffix': '.png'}, 'primary': True}]",City,50aa9e094b90af0d42d5de0d
42,Dol-de-Bretagne,4bee6a7235dc0f47b2cf3f5b,35120,Bretagne,France,FR,48.550928682659816,-1.7568400608901402,"[{'id': '50aa9e094b90af0d42d5de0d', 'name': 'City', 'pluralName': 'Cities', 'shortName': 'City', 'icon': {'prefix': 'https://ss3.4sqi.net/img/categories_v2/parks_outdoors/neighborhood_', 'suffix': '.png'}, 'primary': True}]",City,50aa9e094b90af0d42d5de0d
43,Mordelles,4d150575bb64224b7aa8b165,35,Ile et Vilaine,France,FR,48.07292446472252,-1.849741013828472,"[{'id': '50aa9e094b90af0d42d5de0d', 'name': 'City', 'pluralName': 'Cities', 'shortName': 'City', 'icon': {'prefix': 'https://ss3.4sqi.net/img/categories_v2/parks_outdoors/neighborhood_', 'suffix': '.png'}, 'primary': True}]",City,50aa9e094b90af0d42d5de0d
44,Saint-Méen-le-Grand (Sant-Meven),4c91ec75238c6dcb6bdbc355,35290,Bretagne,France,FR,48.18879521866271,-2.19389742850494,"[{'id': '50aa9e094b90af0d42d5de0d', 'name': 'City', 'pluralName': 'Cities', 'shortName': 'City', 'icon': {'prefix': 'https://ss3.4sqi.net/img/categories_v2/parks_outdoors/neighborhood_', 'suffix': '.png'}, 'primary': True}]",City,50aa9e094b90af0d42d5de0d
45,Guignen,50b93d0b498e7750842503c9,35580,Bretagne,France,FR,47.92156178194972,-1.8571661282501972,"[{'id': '50aa9e094b90af0d42d5de0d', 'name': 'City', 'pluralName': 'Cities', 'shortName': 'City', 'icon': {'prefix': 'https://ss3.4sqi.net/img/categories_v2/parks_outdoors/neighborhood_', 'suffix': '.png'}, 'primary': True}]",City,50aa9e094b90af0d42d5de0d
46,Caulnes,4fb28553e4b0216f68c27536,,,France,FR,48.29086444104686,-2.162361177750163,"[{'id': '50aa9e094b90af0d42d5de0d', 'name': 'City', 'pluralName': 'Cities', 'shortName': 'City', 'icon': {'prefix': 'https://ss3.4sqi.net/img/categories_v2/parks_outdoors/neighborhood_', 'suffix': '.png'}, 'primary': True}]",City,50aa9e094b90af0d42d5de0d
47,Ar Peniti,533d01ae498e2cbdfad2b73f,,Bretagne,France,FR,48.12695,-1.81353,"[{'id': '50aa9e094b90af0d42d5de0d', 'name': 'City', 'pluralName': 'Cities', 'shortName': 'City', 'icon': {'prefix': 'https://ss3.4sqi.net/img/categories_v2/parks_outdoors/neighborhood_', 'suffix': '.png'}, 'primary': True}]",City,50aa9e094b90af0d42d5de0d
48,Pont-Péan,4c5d8dde94fd0f476aaccb45,35131,Bretagne,France,FR,48.00808623855938,-1.706542067695608,"[{'id': '50aa9e094b90af0d42d5de0d', 'name': 'City', 'pluralName': 'Cities', 'shortName': 'City', 'icon': {'prefix': 'https://ss3.4sqi.net/img/categories_v2/parks_outdoors/neighborhood_', 'suffix': '.png'}, 'primary': True}]",City,50aa9e094b90af0d42d5de0d
49,Carentoir (Karantoer),534042b5498e82137806e3a7,56910,Bretagne,France,FR,47.82210509375151,-2.1391166698013593,"[{'id': '50aa9e094b90af0d42d5de0d', 'name': 'City', 'pluralName': 'Cities', 'shortName': 'City', 'icon': {'prefix': 'https://ss3.4sqi.net/img/categories_v2/parks_outdoors/neighborhood_', 'suffix': '.png'}, 'primary': True}]",City,50aa9e094b90af0d42d5de0d
