,name,id,postalCode,state,country,cc,lat,lng,categories,primary_category_name,primary_category_id
0,Lyon,50094bd2e4b04413bf01d1e9,69000,Rhône-Alpes,France,FR,45.758181987497686,4.831967353820801,"[{'id': '50aa9e094b90af0d42d5de0d', 'name': 'City', 'pluralName': 'Cities', 'shortName': 'City', 'icon': {'prefix': 'https://ss3.4sqi.net/img/categories_v2/parks_outdoors/neighborhood_', 'suffix': '.png'}, 'primary': True}]",City,50aa9e094b90af0d42d5de0d
1,Feyzin,534276d0498e28f03b78ba98,,Rhône-Alpes,France,FR,45.67982165451312,4.8632261792807085,"[{'id': '50aa9e094b90af0d42d5de0d', 'name': 'City', 'pluralName': 'Cities', 'shortName': 'City', 'icon': {'prefix': 'https://ss3.4sqi.net/img/categories_v2/parks_outdoors/neighborhood_', 'suffix': '.png'}, 'primary': True}]",City,50aa9e094b90af0d42d5de0d
2,Villeurbanne,4e2051f515207ed86eb53d1f,69100,Rhône-Alpes,France,FR,45.767762453755495,4.879131317138672,"[{'id': '50aa9e094b90af0d42d5de0d', 'name': 'City', 'pluralName': 'Cities', 'shortName': 'City', 'icon': {'prefix': 'https://ss3.4sqi.net/img/categories_v2/parks_outdoors/neighborhood_', 'suffix': '.png'}, 'primary': True}]",City,50aa9e094b90af0d42d5de0d
3,Brignais,4d24b5e42ac6f04dda7e3745,,France,France,FR,45.67511868531085,4.758345073719675,"[{'id': '50aa9e094b90af0d42d5de0d', 'name': 'City', 'pluralName': 'Cities', 'shortName': 'City', 'icon': {'prefix': 'https://ss3.4sqi.net/img/categories_v2/parks_outdoors/neighborhood_', 'suffix': '.png'}, 'primary': True}]",City,50aa9e094b90af0d42d5de0d
4,Vienne,4faa8531e4b04c40ca5e1fca,38200,Rhône-Alpes,France,FR,45.5250545220908,4.87069726254892,"[{'id': '50aa9e094b90af0d42d5de0d', 'name': 'City', 'pluralName': 'Cities', 'shortName': 'City', 'icon': {'prefix': 'https://ss3.4sqi.net/img/categories_v2/parks_outdoors/neighborhood_', 'suffix': '.png'}, 'primary': True}]",City,50aa9e094b90af0d42d5de0d
5,Villefranche-sur-Saône,4e0cb90b62e12464ea8c4ed9,69400,Rhône-Alpes,France,FR,45.98779664234952,4.71913219784887,"[{'id': '50aa9e094b90af0d42d5de0d', 'name': 'City', 'pluralName': 'Cities', 'shortName': 'City', 'icon': {'prefix': 'https://ss3.4sqi.net/img/categories_v2/parks_outdoors/neighborhood_', 'suffix': '.png'}, 'primary': True}]",City,50aa9e094b90af0d42d5de0d
6,Saint-Étienne,4f8fe2dbe4b00b6012ac639d,42000,Rhône-Alpes,France,FR,45.44006471564136,4.387321472167969,"[{'id': '50aa9e094b90af0d42d5de0d', 'name': 'City', 'pluralName': 'Cities', 'shortName': 'City', 'icon': {'prefix': 'https://ss3.4sqi.net/img/categories_v2/parks_outdoors/neighborhood_', 'suffix': '.png'}, 'primary': True}]",City,50aa9e094b90af0d42d5de0d
7,Saint-Just-d'Avray,5268023511d22bdef8d2e70d,69870,Rhône-Alpes,France,FR,46.00179113613346,4.448046684265136,"[{'id': '50aa9e094b90af0d42d5de0d', 'name': 'City', 'pluralName': 'Cities', 'shortName': 'City', 'icon': {'prefix': 'https://ss3.4sqi.net/img/categories_v2/parks_outdoors/neighborhood_', 'suffix': '.png'}, 'primary': True}]",City,50aa9e094b90af0d42d5de0d
8,Pierre-Bénite,50a3580ce4b0344e337a8ec7,69310,Rhône-Alpes,France,FR,45.70065567355163,4.837813413553277,"[{'id': '50aa9e094b90af0d42d5de0d', 'name': 'City', 'pluralName': 'Cities', 'shortName': 'City', 'icon': {'prefix': 'https://ss3.4sqi.net/img/categories_v2/parks_outdoors/neighborhood_', 'suffix': '.png'}, 'primary': True}]",City,50aa9e094b90af0d42d5de0d
9,Écully,537074f1498e275c904507b1,,Rhône-Alpes,France,FR,45.78491432821939,4.7761835759022615,"[{'id': '50aa9e094b90af0d42d5de0d', 'name': 'City', 'pluralName': 'Cities', 'shortName': 'City', 'icon': {'prefix': 'https://ss3.4sqi.net/img/categories_v2/parks_outdoors/neighborhood_', 'suffix': '.png'}, 'primary': True}]",City,50aa9e094b90af0d42d5de0d
10,Bron,4ca4d703554b236a64af3248,69500,Rhône-Alpes,France,FR,45.7312940239122,4.901510430330274,"[{'id': '50aa9e094b90af0d42d5de0d', 'name': 'City', 'pluralName': 'Cities', 'shortName': 'City', 'icon': {'prefix': 'https://ss3.4sqi.net/img/categories_v2/parks_outdoors/neighborhood_', 'suffix': '.png'}, 'primary': True}]",City,50aa9e094b90af0d42d5de0d
11,Saint-Priest,4e1f1f2e887799f23ff586cb,69800,Rhône-Alpes,France,FR,45.685146947911065,4.946925622385637,"[{'id': '50aa9e094b90af0d42d5de0d', 'name': 'City', 'pluralName': 'Cities', 'shortName': 'City', 'icon': {'prefix': 'https://ss3.4sqi.net/img/categories_v2/parks_outdoors/neighborhood_', 'suffix': '.png'}, 'primary': True}]",City,50aa9e094b90af0d42d5de0d
12,Feyzin,5268e8de498e8244ff564df1,69320,Rhône-Alpes,France,FR,45.67787707494121,4.847686927465023,"[{'id': '50aa9e094b90af0d42d5de0d', 'name': 'City', 'pluralName': 'Cities', 'shortName': 'City', 'icon': {'prefix': 'https://ss3.4sqi.net/img/categories_v2/parks_outdoors/neighborhood_', 'suffix': '.png'}, 'primary': True}]",City,50aa9e094b90af0d42d5de0d
13,Tarare,4e7df96b722eb802005cee53,69170,Rhône-Alpes,France,FR,45.89384757352635,4.4233462630021725,"[{'id': '50aa9e094b90af0d42d5de0d', 'name': 'City', 'pluralName': 'Cities', 'shortName': 'City', 'icon': {'prefix': 'https://ss3.4sqi.net/img/categories_v2/parks_outdoors/neighborhood_', 'suffix': '.png'}, 'primary': True}]",City,50aa9e094b90af0d42d5de0d
14,Saint-Clément-sur-Valsonne,4bec3935a9900f4761be1840,,Rhône-Alpes,France,FR,45.917663971199126,4.463099048076394,"[{'id': '50aa9e094b90af0d42d5de0d', 'name': 'City', 'pluralName': 'Cities', 'shortName': 'City', 'icon': {'prefix': 'https://ss3.4sqi.net/img/categories_v2/parks_outdoors/neighborhood_', 'suffix': '.png'}, 'primary': True}]",City,50aa9e094b90af0d42d5de0d
15,Caluire-et-Cuire,5002c16ce4b000090f9470ec,69300,Rhône-Alpes,France,FR,45.802006832418705,4.861759161498455,"[{'id': '50aa9e094b90af0d42d5de0d', 'name': 'City', 'pluralName': 'Cities', 'shortName': 'City', 'icon': {'prefix': 'https://ss3.4sqi.net/img/categories_v2/parks_outdoors/neighborhood_', 'suffix': '.png'}, 'primary': True}]",City,50aa9e094b90af0d42d5de0d
16,Oullins,4f9b9ae3e4b05baf77cd32a1,69600,Rhône-Alpes,France,FR,45.717189166344546,4.818497754675035,"[{'id': '50aa9e094b90af0d42d5de0d', 'name': 'City', 'pluralName': 'Cities', 'shortName': 'City', 'icon': {'prefix': 'https://ss3.4sqi.net/img/categories_v2/parks_outdoors/neighborhood_', 'suffix': '.png'}, 'primary': True}]",City,50aa9e094b90af0d42d5de0d
17,Vaulx-en-Velin,4ccc5dbcc9b846881c4ebcc3,,,France,FR,45.778719789238586,4.920785463464778,"[{'id': '50aa9e094b90af0d42d5de0d', 'name': 'City', 'pluralName': 'Cities', 'shortName': 'City', 'icon': {'prefix': 'https://ss3.4sqi.net/img/categories_v2/parks_outdoors/neighborhood_', 'suffix': '.png'}, 'primary': True}]",City,50aa9e094b90af0d42d5de0d
18,Chatillon d'Azergues,4d14e9a58312236a7c544eba,69380,Rhône-Alpes,France,FR,45.87848880195918,4.644931376938729,"[{'id': '50aa9e094b90af0d42d5de0d', 'name': 'City', 'pluralName': 'Cities', 'shortName': 'City', 'icon': {'prefix': 'https://ss3.4sqi.net/img/categories_v2/parks_outdoors/neighborhood_', 'suffix': '.png'}, 'primary': True}]",City,50aa9e094b90af0d42d5de0d
19,Bourgoin-Jallieu,4fbddfc0e4b05cd27a1b92d9,,,France,FR,45.592387896122496,5.275787102372934,"[{'id': '50aa9e094b90af0d42d5de0d', 'name': 'City', 'pluralName': 'Cities', 'shortName': 'City', 'icon': {'prefix': 'https://ss3.4sqi.net/img/categories_v2/parks_outdoors/neighborhood_', 'suffix': '.png'}, 'primary': True}]",City,50aa9e094b90af0d42d5de0d
20,Charbonnières-les-Bains,4e2bd7518877b69d49e4cc6c,69260,Rhône-Alpes,France,FR,45.78391549917269,4.746470105628135,"[{'id': '50aa9e094b90af0d42d5de0d', 'name': 'City', 'pluralName': 'Cities', 'shortName': 'City', 'icon': {'prefix': 'https://ss3.4sqi.net/img/categories_v2/parks_outdoors/neighborhood_', 'suffix': '.png'}, 'primary': True}]",City,50aa9e094b90af0d42d5de0d
21,Craponne,4ca0cd5119e4236ab7bc6489,,,France,FR,45.74769779497739,4.725345840932735,"[{'id': '50aa9e094b90af0d42d5de0d', 'name': 'City', 'pluralName': 'Cities', 'shortName': 'City', 'icon': {'prefix': 'https://ss3.4sqi.net/img/categories_v2/parks_outdoors/neighborhood_', 'suffix': '.png'}, 'primary': True}]",City,50aa9e094b90af0d42d5de0d
22,Genas,4c0fdeb17c49b71348b33606,69740,France,France,FR,45.74045459213965,5.013549445395365,"[{'id': '50aa9e094b90af0d42d5de0d', 'name': 'City', 'pluralName': 'Cities', 'shortName': 'City', 'icon': {'prefix': 'https://ss3.4sqi.net/img/categories_v2/parks_outdoors/neighborhood_', 'suffix': '.png'}, 'primary': True}]",City,50aa9e094b90af0d42d5de0d
23,Fallavier,533fe76f498eaf5fb4743c3c,,Rhône-Alpes,France,FR,45.63492561991094,5.12149359787187,"[{'id': '50aa9e094b90af0d42d5de0d', 'name': 'City', 'pluralName': 'Cities', 'shortName': 'City', 'icon': {'prefix': 'https://ss3.4sqi.net/img/categories_v2/parks_outdoors/neighborhood_', 'suffix': '.png'}, 'primary': True}]",City,50aa9e094b90af0d42d5de0d
24,Villefontaine,4d82711a4bbaa093b42ac2ac,38090,Rhône-Alpes,France,FR,45.609819614151476,5.156965255737305,"[{'id': '50aa9e094b90af0d42d5de0d', 'name': 'City', 'pluralName': 'Cities', 'shortName': 'City', 'icon': {'prefix': 'https://ss3.4sqi.net/img/categories_v2/parks_outdoors/neighborhood_', 'suffix': '.png'}, 'primary': True}]",City,50aa9e094b90af0d42d5de0d
25,Ville-sur-Jarnioux,536e3729498ecc66d325af74,,Rhône-Alpes,France,FR,45.961669326492164,4.603995647639298,"[{'id': '50aa9e094b90af0d42d5de0d', 'name': 'City', 'pluralName': 'Cities', 'shortName': 'City', 'icon': {'prefix': 'https://ss3.4sqi.net/img/categories_v2/parks_outdoors/neighborhood_', 'suffix': '.png'}, 'primary': True}]",City,50aa9e094b90af0d42d5de0d
26,Tassin La Demi-Lune,4e69f85888772457c43aa16c,69160,Rhône-Alpes,France,FR,45.7571825803099,4.7733030847227464,"[{'id': '50aa9e094b90af0d42d5de0d', 'name': 'City', 'pluralName': 'Cities', 'shortName': 'City', 'icon': {'prefix': 'https://ss3.4sqi.net/img/categories_v2/parks_outdoors/neighborhood_', 'suffix': '.png'}, 'primary': True}]",City,50aa9e094b90af0d42d5de0d
27,Chatillon Sur Chalaronne,4ddd4e041838306b821b02c2,01400,Rhône-Alpes,France,FR,46.11419916628588,4.957725215299444,"[{'id': '50aa9e094b90af0d42d5de0d', 'name': 'City', 'pluralName': 'Cities', 'shortName': 'City', 'icon': {'prefix': 'https://ss3.4sqi.net/img/categories_v2/parks_outdoors/neighborhood_', 'suffix': '.png'}, 'primary': True}]",City,50aa9e094b90af0d42d5de0d
28,Décines,512b8ac3e4b0197104672f5c,,,France,FR,45.75437488104424,4.939442689822834,"[{'id': '50aa9e094b90af0d42d5de0d', 'name': 'City', 'pluralName': 'Cities', 'shortName': 'City', 'icon': {'prefix': 'https://ss3.4sqi.net/img/categories_v2/parks_outdoors/neighborhood_', 'suffix': '.png'}, 'primary': True}]",City,50aa9e094b90af0d42d5de0d
29,Saint-Maurice de Beynost,50e08f9ce4b0a3664e44d8ad,,,France,FR,45.82814076755263,4.972898252625234,"[{'id': '50aa9e094b90af0d42d5de0d', 'name': 'City', 'pluralName': 'Cities', 'shortName': 'City', 'icon': {'prefix': 'https://ss3.4sqi.net/img/categories_v2/parks_outdoors/neighborhood_', 'suffix': '.png'}, 'primary': True}]",City,50aa9e094b90af0d42d5de0d
30,Anse,50dac515e4b0ecbb18bcf1ec,,,France,FR,45.93629104795447,4.714939170879754,"[{'id': '50aa9e094b90af0d42d5de0d', 'name': 'City', 'pluralName': 'Cities', 'shortName': 'City', 'icon': {'prefix': 'https://ss3.4sqi.net/img/categories_v2/parks_outdoors/neighborhood_', 'suffix': '.png'}, 'primary': True}]",City,50aa9e094b90af0d42d5de0d
31,Francheville,4b92c797f964a520fb1a34e3,69340,,France,FR,45.73889631197834,4.75433349609375,"[{'id': '50aa9e094b90af0d42d5de0d', 'name': 'City', 'pluralName': 'Cities', 'shortName': 'City', 'icon': {'prefix': 'https://ss3.4sqi.net/img/categories_v2/parks_outdoors/neighborhood_', 'suffix': '.png'}, 'primary': True}]",City,50aa9e094b90af0d42d5de0d
32,Chasselay,4da2f3f722a5f04d90fd1955,,,France,FR,45.87362564994128,4.768275821960757,"[{'id': '50aa9e094b90af0d42d5de0d', 'name': 'City', 'pluralName': 'Cities', 'shortName': 'City', 'icon': {'prefix': 'https://ss3.4sqi.net/img/categories_v2/parks_outdoors/neighborhood_', 'suffix': '.png'}, 'primary': True}]",City,50aa9e094b90af0d42d5de0d
33,Marcy l'Etoile,4d8640b602eb5481212c54f5,69280,Rhône-Alpes,France,FR,45.78596769052187,4.70791128265585,"[{'id': '50aa9e094b90af0d42d5de0d', 'name': 'City', 'pluralName': 'Cities', 'shortName': 'City', 'icon': {'prefix': 'https://ss3.4sqi.net/img/categories_v2/parks_outdoors/neighborhood_', 'suffix': '.png'}, 'primary': True}]",City,50aa9e094b90af0d42d5de0d
34,Beynost,4c9f40ed542b224b1b97fb9f,01700,Rhône-Alpes,France,FR,45.825441731041366,4.996565037866756,"[{'id': '50aa9e094b90af0d42d5de0d', 'name': 'City', 'pluralName': 'Cities', 'shortName': 'City', 'icon': {'prefix': 'https://ss3.4sqi.net/img/categories_v2/parks_outdoors/neighborhood_', 'suffix': '.png'}, 'primary': True}]",City,50aa9e094b90af0d42d5de0d
35,Pont-de-Chéruy,51aa90bf498ebb2ef2f4a6ed,38230,Rhône-Alpes,France,FR,45.749704903637124,5.186217718081652,"[{'id': '50aa9e094b90af0d42d5de0d', 'name': 'City', 'pluralName': 'Cities', 'shortName': 'City', 'icon': {'prefix': 'https://ss3.4sqi.net/img/categories_v2/parks_outdoors/neighborhood_', 'suffix': '.png'}, 'primary': True}]",City,50aa9e094b90af0d42d5de0d
36,Mornant,4c55409b1b46c9b6bea5e6cf,,,France,FR,45.613605356592444,4.675775295615222,"[{'id': '4bf58dd8d48988d1de941735', 'name': 'Vineyard', 'pluralName': 'Vineyards', 'shortName': 'Vineyard', 'icon': {'prefix': 'https://ss3.4sqi.net/img/categories_v2/parks_outdoors/vineyard_', 'suffix': '.png'}, 'primary': True}]",Vineyard,4bf58dd8d48988d1de941735
37,Meximieux,4e16e1c77d8b69590f4606f3,,Rhône-Alpes,France,FR,45.90141499110339,5.195602024890578,"[{'id': '50aa9e094b90af0d42d5de0d', 'name': 'City', 'pluralName': 'Cities', 'shortName': 'City', 'icon': {'prefix': 'https://ss3.4sqi.net/img/categories_v2/parks_outdoors/neighborhood_', 'suffix': '.png'}, 'primary': True}]",City,50aa9e094b90af0d42d5de0d
38,Corbas,4cdd9436df986ea8d97dd616,,,France,FR,45.67033487475071,4.895505826213998,"[{'id': '50aa9e094b90af0d42d5de0d', 'name': 'City', 'pluralName': 'Cities', 'shortName': 'City', 'icon': {'prefix': 'https://ss3.4sqi.net/img/categories_v2/parks_outdoors/neighborhood_', 'suffix': '.png'}, 'primary': True}]",City,50aa9e094b90af0d42d5de0d
39,Fareins,53552d08498e00ca633d6a44,,Rhône-Alpes,France,FR,46.049843396198554,4.771239107031988,"[{'id': '50aa9e094b90af0d42d5de0d', 'name': 'City', 'pluralName': 'Cities', 'shortName': 'City', 'icon': {'prefix': 'https://ss3.4sqi.net/img/categories_v2/parks_outdoors/neighborhood_', 'suffix': '.png'}, 'primary': True}]",City,50aa9e094b90af0d42d5de0d
40,Montagny,50a8d36be4b082296bf609d3,69700,Rhône-Alpes,France,FR,45.62157600506702,4.746942498877385,"[{'id': '50aa9e094b90af0d42d5de0d', 'name': 'City', 'pluralName': 'Cities', 'shortName': 'City', 'icon': {'prefix': 'https://ss3.4sqi.net/img/categories_v2/parks_outdoors/neighborhood_', 'suffix': '.png'}, 'primary': True}]",City,50aa9e094b90af0d42d5de0d
41,Montalieu-Vercieu,536ee8c2498ee1dd0efb4d7b,,Rhône-Alpes,France,FR,45.82843051473631,5.415275908403512,"[{'id': '50aa9e094b90af0d42d5de0d', 'name': 'City', 'pluralName': 'Cities', 'shortName': 'City', 'icon': {'prefix': 'https://ss3.4sqi.net/img/categories_v2/parks_outdoors/neighborhood_', 'suffix': '.png'}, 'primary': True}]",City,50aa9e094b90af0d42d5de0d
42,Veauche,4e116a2bc65b4a49f30d400a,,Rhône-Alpes,France,FR,45.55787400166462,4.286287867392895,"[{'id': '50aa9e094b90af0d42d5de0d', 'name': 'City', 'pluralName': 'Cities', 'shortName': 'City', 'icon': {'prefix': 'https://ss3.4sqi.net/img/categories_v2/parks_outdoors/neighborhood_', 'suffix': '.png'}, 'primary': True}]",City,50aa9e094b90af0d42d5de0d
43,Saint-Genis-les-Ollières,4e6cb63fb61c739ba8a9757c,69290,,France,FR,45.7571942145859,4.723991488117669,"[{'id': '50aa9e094b90af0d42d5de0d', 'name': 'City', 'pluralName': 'Cities', 'shortName': 'City', 'icon': {'prefix': 'https://ss3.4sqi.net/img/categories_v2/parks_outdoors/neighborhood_', 'suffix': '.png'}, 'primary': True}]",City,50aa9e094b90af0d42d5de0d
44,Ambérieu-en-Bugey,4e4302bb1f6ec2e1931684f0,,,France,FR,45.95836179346981,5.341861185582112,"[{'id': '50aa9e094b90af0d42d5de0d', 'name': 'City', 'pluralName': 'Cities', 'shortName': 'City', 'icon': {'prefix': 'https://ss3.4sqi.net/img/categories_v2/parks_outdoors/neighborhood_', 'suffix': '.png'}, 'primary': True}]",City,50aa9e094b90af0d42d5de0d
45,Tignieu-Jameyzieu,53624c37498e72d9f0dea9f4,,Rhône-Alpes,France,FR,45.7384444134282,5.173793332198834,"[{'id': '50aa9e094b90af0d42d5de0d', 'name': 'City', 'pluralName': 'Cities', 'shortName': 'City', 'icon': {'prefix': 'https://ss3.4sqi.net/img/categories_v2/parks_outdoors/neighborhood_', 'suffix': '.png'}, 'primary': True}]",City,50aa9e094b90af0d42d5de0d
46,Trevoux,4bea63c86295c9b6985f8608,01600,Rhône-Alpes,France,FR,45.942496045578,4.771585464477539,"[{'id': '50aa9e094b90af0d42d5de0d', 'name': 'City', 'pluralName': 'Cities', 'shortName': 'City', 'icon': {'prefix': 'https://ss3.4sqi.net/img/categories_v2/parks_outdoors/neighborhood_', 'suffix': '.png'}, 'primary': True}]",City,50aa9e094b90af0d42d5de0d
47,Écully,4db3d39d1e7248d135958c10,,RA,France,FR,45.77459149947839,4.779144941974443,"[{'id': '50aa9e094b90af0d42d5de0d', 'name': 'City', 'pluralName': 'Cities', 'shortName': 'City', 'icon': {'prefix': 'https://ss3.4sqi.net/img/categories_v2/parks_outdoors/neighborhood_', 'suffix': '.png'}, 'primary': True}]",City,50aa9e094b90af0d42d5de0d
48,Marcilly d'Azergues,4e6e78c362e1457089696950,,,France,FR,45.872416707552745,4.739876469909362,"[{'id': '50aa9e094b90af0d42d5de0d', 'name': 'City', 'pluralName': 'Cities', 'shortName': 'City', 'icon': {'prefix': 'https://ss3.4sqi.net/img/categories_v2/parks_outdoors/neighborhood_', 'suffix': '.png'}, 'primary': True}]",City,50aa9e094b90af0d42d5de0d
49,Les Echets,536e17f7498e93b032de75c8,,Rhône-Alpes,France,FR,45.873050895125054,4.912278418643066,"[{'id': '50aa9e094b90af0d42d5de0d', 'name': 'City', 'pluralName': 'Cities', 'shortName': 'City', 'icon': {'prefix': 'https://ss3.4sqi.net/img/categories_v2/parks_outdoors/neighborhood_', 'suffix': '.png'}, 'primary': True}]",City,50aa9e094b90af0d42d5de0d
