,name,id,postalCode,state,country,cc,lat,lng,categories,primary_category_name,primary_category_id
0,Marseille,513b4b5a805529c0974a0287,13000,Provence-Alpes-Côte d'Azur,France,FR,43.29794801740647,5.3694820404052725,"[{'id': '50aa9e094b90af0d42d5de0d', 'name': 'City', 'pluralName': 'Cities', 'shortName': 'City', 'icon': {'prefix': 'https://ss3.4sqi.net/img/categories_v2/parks_outdoors/neighborhood_', 'suffix': '.png'}, 'primary': True}]",City,50aa9e094b90af0d42d5de0d
1,Aix-en-Provence,50052627e4b0b93071b209a4,13100,Provence-Alpes-Côte d'Azur,France,FR,43.52659834393956,5.447040929180928,"[{'id': '50aa9e094b90af0d42d5de0d', 'name': 'City', 'pluralName': 'Cities', 'shortName': 'City', 'icon': {'prefix': 'https://ss3.4sqi.net/img/categories_v2/parks_outdoors/neighborhood_', 'suffix': '.png'}, 'primary': True}]",City,50aa9e094b90af0d42d5de0d
2,La Seyne-sur-Mer,4ef6040977c8e88f469490df,,France,France,FR,43.11075712950073,5.8822951394808385,"[{'id': '50aa9e094b90af0d42d5de0d', 'name': 'City', 'pluralName': 'Cities', 'shortName': 'City', 'icon': {'prefix': 'https://ss3.4sqi.net/img/categories_v2/parks_outdoors/neighborhood_', 'suffix': '.png'}, 'primary': True}]",City,50aa9e094b90af0d42d5de0d
3,Auriol,4c2c98de8ef52d7f3a1d33ba,13390,Provence-Alpes-Côte d'Azur,France,FR,43.36292461170899,5.634199453748241,"[{'id': '50aa9e094b90af0d42d5de0d', 'name': 'City', 'pluralName': 'Cities', 'shortName': 'City', 'icon': {'prefix': 'https://ss3.4sqi.net/img/categories_v2/parks_outdoors/neighborhood_', 'suffix': '.png'}, 'primary': True}]",City,50aa9e094b90af0d42d5de0d
4,Toulon,50dc240ce4b09036bd2465ad,83000,Provence-Alpes-Côte d'Azur,France,FR,43.12306334574765,5.93465789162132,"[{'id': '50aa9e094b90af0d42d5de0d', 'name': 'City', 'pluralName': 'Cities', 'shortName': 'City', 'icon': {'prefix': 'https://ss3.4sqi.net/img/categories_v2/parks_outdoors/neighborhood_', 'suffix': '.png'}, 'primary': True}]",City,50aa9e094b90af0d42d5de0d
5,Cassis,4e31bf9cfa76634e16c49be1,13260,Provence-Alpes-Côte d'Azur,France,FR,43.2145405588371,5.538456774733378,"[{'id': '50aa9e094b90af0d42d5de0d', 'name': 'City', 'pluralName': 'Cities', 'shortName': 'City', 'icon': {'prefix': 'https://ss3.4sqi.net/img/categories_v2/parks_outdoors/neighborhood_', 'suffix': '.png'}, 'primary': True}]",City,50aa9e094b90af0d42d5de0d
6,Saint-Victoret,53e92065498e9adcbb639182,,Provence-Alpes-Côte d'Azur,France,FR,43.42048992460896,5.250762138393189,"[{'id': '50aa9e094b90af0d42d5de0d', 'name': 'City', 'pluralName': 'Cities', 'shortName': 'City', 'icon': {'prefix': 'https://ss3.4sqi.net/img/categories_v2/parks_outdoors/neighborhood_', 'suffix': '.png'}, 'primary': True}]",City,50aa9e094b90af0d42d5de0d
7,Salon-de-Provence,4b90e6b9f964a520a79b33e3,13300,PACA,France,FR,43.63199714584845,5.1003246139475165,"[{'id': '50aa9e094b90af0d42d5de0d', 'name': 'City', 'pluralName': 'Cities', 'shortName': 'City', 'icon': {'prefix': 'https://ss3.4sqi.net/img/categories_v2/parks_outdoors/neighborhood_', 'suffix': '.png'}, 'primary': True}]",City,50aa9e094b90af0d42d5de0d
8,Marignane,4dbef98af7b1ab37dd9945a9,13700,PACA,France,FR,43.411889205151866,5.2169392730147575,"[{'id': '50aa9e094b90af0d42d5de0d', 'name': 'City', 'pluralName': 'Cities', 'shortName': 'City', 'icon': {'prefix': 'https://ss3.4sqi.net/img/categories_v2/parks_outdoors/neighborhood_', 'suffix': '.png'}, 'primary': True}]",City,50aa9e094b90af0d42d5de0d
9,Aubagne,502f97b6e4b01882f8dcf08b,13400,Provence-Alpes-Côte d'Azur,France,FR,43.29323110081063,5.56815031280997,"[{'id': '50aa9e094b90af0d42d5de0d', 'name': 'City', 'pluralName': 'Cities', 'shortName': 'City', 'icon': {'prefix': 'https://ss3.4sqi.net/img/categories_v2/parks_outdoors/neighborhood_', 'suffix': '.png'}, 'primary': True}]",City,50aa9e094b90af0d42d5de0d
10,La Ciotat,4f9409a5e4b01b89902074bf,13600,Provence-Alpes-Côte d'Azur,France,FR,43.18547699761722,5.605524413139743,"[{'id': '50aa9e094b90af0d42d5de0d', 'name': 'City', 'pluralName': 'Cities', 'shortName': 'City', 'icon': {'prefix': 'https://ss3.4sqi.net/img/categories_v2/parks_outdoors/neighborhood_', 'suffix': '.png'}, 'primary': True}]",City,50aa9e094b90af0d42d5de0d
11,La Fare-les-Oliviers,5336fa27498e650544563001,,Provence-Alpes-Côte d'Azur,France,FR,43.54892512610785,5.187323776907465,"[{'id': '50aa9e094b90af0d42d5de0d', 'name': 'City', 'pluralName': 'Cities', 'shortName': 'City', 'icon': {'prefix': 'https://ss3.4sqi.net/img/categories_v2/parks_outdoors/neighborhood_', 'suffix': '.png'}, 'primary': True}]",City,50aa9e094b90af0d42d5de0d
12,Cassis,55d1ff3f498e7647ee3bd98e,,,France,FR,43.21393394842018,5.539770126342773,"[{'id': '50aa9e094b90af0d42d5de0d', 'name': 'City', 'pluralName': 'Cities', 'shortName': 'City', 'icon': {'prefix': 'https://ss3.4sqi.net/img/categories_v2/parks_outdoors/neighborhood_', 'suffix': '.png'}, 'primary': True}]",City,50aa9e094b90af0d42d5de0d
13,La Destrousse,4c4205b0ce54e21e3f000c1a,13112,Provence-Alpes-Côte d'Azur,France,FR,43.373540092211485,5.6040055950948515,"[{'id': '50aa9e094b90af0d42d5de0d', 'name': 'City', 'pluralName': 'Cities', 'shortName': 'City', 'icon': {'prefix': 'https://ss3.4sqi.net/img/categories_v2/parks_outdoors/neighborhood_', 'suffix': '.png'}, 'primary': True}]",City,50aa9e094b90af0d42d5de0d
14,Marseille,597037050fe7a019d0bf2e64,13001,Provence-Alpes-Côte d'Azur,France,FR,43.301229,5.369913,"[{'id': '50aa9e094b90af0d42d5de0d', 'name': 'City', 'pluralName': 'Cities', 'shortName': 'City', 'icon': {'prefix': 'https://ss3.4sqi.net/img/categories_v2/parks_outdoors/neighborhood_', 'suffix': '.png'}, 'primary': True}]",City,50aa9e094b90af0d42d5de0d
15,Peypin,4de29bf4fa7651589f035bad,,Provence-Alpes-Côte d'Azur,France,FR,43.38414211418548,5.573827222991162,"[{'id': '50aa9e094b90af0d42d5de0d', 'name': 'City', 'pluralName': 'Cities', 'shortName': 'City', 'icon': {'prefix': 'https://ss3.4sqi.net/img/categories_v2/parks_outdoors/neighborhood_', 'suffix': '.png'}, 'primary': True}]",City,50aa9e094b90af0d42d5de0d
16,Vitrolles,4f9aecb4e4b0176464e2be08,,,France,FR,43.458150549042834,5.238095336929964,"[{'id': '50aa9e094b90af0d42d5de0d', 'name': 'City', 'pluralName': 'Cities', 'shortName': 'City', 'icon': {'prefix': 'https://ss3.4sqi.net/img/categories_v2/parks_outdoors/neighborhood_', 'suffix': '.png'}, 'primary': True}]",City,50aa9e094b90af0d42d5de0d
17,Allauch,4da943f48154abafc28fb497,13190,Provence-Alpes-Côte d'Azur,France,FR,43.32720692542505,5.48243522644043,"[{'id': '50aa9e094b90af0d42d5de0d', 'name': 'City', 'pluralName': 'Cities', 'shortName': 'City', 'icon': {'prefix': 'https://ss3.4sqi.net/img/categories_v2/parks_outdoors/neighborhood_', 'suffix': '.png'}, 'primary': True}]",City,50aa9e094b90af0d42d5de0d
18,Roquevaire,4c4701110f5aa5932d547c76,,,France,FR,43.347474842173995,5.602486816254875,"[{'id': '50aa9e094b90af0d42d5de0d', 'name': 'City', 'pluralName': 'Cities', 'shortName': 'City', 'icon': {'prefix': 'https://ss3.4sqi.net/img/categories_v2/parks_outdoors/neighborhood_', 'suffix': '.png'}, 'primary': True}]",City,50aa9e094b90af0d42d5de0d
19,Sausset-les-Pins,4bc051ac461576b029007a32,13960,France,France,FR,43.331013737442966,5.1098167106963395,"[{'id': '50aa9e094b90af0d42d5de0d', 'name': 'City', 'pluralName': 'Cities', 'shortName': 'City', 'icon': {'prefix': 'https://ss3.4sqi.net/img/categories_v2/parks_outdoors/neighborhood_', 'suffix': '.png'}, 'primary': True}]",City,50aa9e094b90af0d42d5de0d
20,La Cadière d'Azur,4bd1880377b29c7403b28c82,83740,PACA,France,FR,43.196424598020705,5.756543980925265,"[{'id': '4bf58dd8d48988d162941735', 'name': 'Other Great Outdoors', 'pluralName': 'Other Great Outdoors', 'shortName': 'Other Outdoors', 'icon': {'prefix': 'https://ss3.4sqi.net/img/categories_v2/parks_outdoors/outdoors_', 'suffix': '.png'}, 'primary': True}]",Other Great Outdoors,4bf58dd8d48988d162941735
21,Fos-sur-Mer,4bc9ba9e937ca593fa2ea692,,France,France,FR,43.440580669143664,4.9431610107421875,"[{'id': '50aa9e094b90af0d42d5de0d', 'name': 'City', 'pluralName': 'Cities', 'shortName': 'City', 'icon': {'prefix': 'https://ss3.4sqi.net/img/categories_v2/parks_outdoors/neighborhood_', 'suffix': '.png'}, 'primary': True}]",City,50aa9e094b90af0d42d5de0d
22,Martigues,4db6f4c76e8179a913ae17f9,,Provence-Alpes-Côte d'Azur,France,FR,43.40577860210239,5.049040993526788,"[{'id': '50aa9e094b90af0d42d5de0d', 'name': 'City', 'pluralName': 'Cities', 'shortName': 'City', 'icon': {'prefix': 'https://ss3.4sqi.net/img/categories_v2/parks_outdoors/neighborhood_', 'suffix': '.png'}, 'primary': True}]",City,50aa9e094b90af0d42d5de0d
23,Fos-sur-Mer,555642bc498efdc9d3439a1e,,Provence-Alpes-Côte d'Azur,France,FR,43.43821243924101,4.944877624511719,"[{'id': '50aa9e094b90af0d42d5de0d', 'name': 'City', 'pluralName': 'Cities', 'shortName': 'City', 'icon': {'prefix': 'https://ss3.4sqi.net/img/categories_v2/parks_outdoors/neighborhood_', 'suffix': '.png'}, 'primary': True}]",City,50aa9e094b90af0d42d5de0d
24,Sausset-les-Pins,4bc5bd3d6c26b71303a4ebf3,13960,Provence-Alpes-Côte d'Azur,France,FR,43.330274534755134,5.107084898911935,"[{'id': '50aa9e094b90af0d42d5de0d', 'name': 'City', 'pluralName': 'Cities', 'shortName': 'City', 'icon': {'prefix': 'https://ss3.4sqi.net/img/categories_v2/parks_outdoors/neighborhood_', 'suffix': '.png'}, 'primary': True}]",City,50aa9e094b90af0d42d5de0d
25,Chateauneuf-le-Rouge,53641a95498e17304be2010c,,Provence-Alpes-Côte d'Azur,France,FR,43.48946488494804,5.563525088397853,"[{'id': '50aa9e094b90af0d42d5de0d', 'name': 'City', 'pluralName': 'Cities', 'shortName': 'City', 'icon': {'prefix': 'https://ss3.4sqi.net/img/categories_v2/parks_outdoors/neighborhood_', 'suffix': '.png'}, 'primary': True}]",City,50aa9e094b90af0d42d5de0d
26,Coudoux,4f1ebd5ae4b01e4d57a1bcf0,,Provence-Alpes-Côte d'Azur,France,FR,43.55636007596343,5.249803361193398,"[{'id': '50aa9e094b90af0d42d5de0d', 'name': 'City', 'pluralName': 'Cities', 'shortName': 'City', 'icon': {'prefix': 'https://ss3.4sqi.net/img/categories_v2/parks_outdoors/neighborhood_', 'suffix': '.png'}, 'primary': True}]",City,50aa9e094b90af0d42d5de0d
27,Septemes Les Vallons,5215e62a11d299f75b440aaa,,,France,FR,43.39927137421777,5.361593550481131,"[{'id': '50aa9e094b90af0d42d5de0d', 'name': 'City', 'pluralName': 'Cities', 'shortName': 'City', 'icon': {'prefix': 'https://ss3.4sqi.net/img/categories_v2/parks_outdoors/neighborhood_', 'suffix': '.png'}, 'primary': True}]",City,50aa9e094b90af0d42d5de0d
28,Velaux,4da9b2866e81162ae7c34f8d,13880,PACA,France,FR,43.52188124066023,5.2584023310304735,"[{'id': '50aa9e094b90af0d42d5de0d', 'name': 'City', 'pluralName': 'Cities', 'shortName': 'City', 'icon': {'prefix': 'https://ss3.4sqi.net/img/categories_v2/parks_outdoors/neighborhood_', 'suffix': '.png'}, 'primary': True}]",City,50aa9e094b90af0d42d5de0d
29,Saint-Cyr-sur-Mer,4f9d1888e4b01da4009e42ff,83270,Provence-Alpes-Côte d'Azur,France,FR,43.18102188485352,5.696582794189453,"[{'id': '50aa9e094b90af0d42d5de0d', 'name': 'City', 'pluralName': 'Cities', 'shortName': 'City', 'icon': {'prefix': 'https://ss3.4sqi.net/img/categories_v2/parks_outdoors/neighborhood_', 'suffix': '.png'}, 'primary': True}]",City,50aa9e094b90af0d42d5de0d
30,Pélissanne,4f60558ce4b0dabd472d94ff,,,France,FR,43.63149157664613,5.153945847653072,"[{'id': '50aa9e094b90af0d42d5de0d', 'name': 'City', 'pluralName': 'Cities', 'shortName': 'City', 'icon': {'prefix': 'https://ss3.4sqi.net/img/categories_v2/parks_outdoors/neighborhood_', 'suffix': '.png'}, 'primary': True}]",City,50aa9e094b90af0d42d5de0d
31,Velaux,533c553c498eef34237ef031,,Provence-Alpes-Côte d'Azur,France,FR,43.52839,5.25661,"[{'id': '50aa9e094b90af0d42d5de0d', 'name': 'City', 'pluralName': 'Cities', 'shortName': 'City', 'icon': {'prefix': 'https://ss3.4sqi.net/img/categories_v2/parks_outdoors/neighborhood_', 'suffix': '.png'}, 'primary': True}]",City,50aa9e094b90af0d42d5de0d
32,Venelles,4bdeda566198c9b6700e15ff,,,France,FR,43.593097391898084,5.475310751407013,"[{'id': '50aa9e094b90af0d42d5de0d', 'name': 'City', 'pluralName': 'Cities', 'shortName': 'City', 'icon': {'prefix': 'https://ss3.4sqi.net/img/categories_v2/parks_outdoors/neighborhood_', 'suffix': '.png'}, 'primary': True}]",City,50aa9e094b90af0d42d5de0d
33,Puyricard,4b9accbbf964a520e6d635e3,,,France,FR,43.584485767913385,5.420754098670731,"[{'id': '50aa9e094b90af0d42d5de0d', 'name': 'City', 'pluralName': 'Cities', 'shortName': 'City', 'icon': {'prefix': 'https://ss3.4sqi.net/img/categories_v2/parks_outdoors/neighborhood_', 'suffix': '.png'}, 'primary': True}]",City,50aa9e094b90af0d42d5de0d
34,Pertuis,5084d46de4b0bf87c1fadc62,,Provence-Alpes-Côte d'Azur,France,FR,43.69501041355306,5.502190814441051,"[{'id': '50aa9e094b90af0d42d5de0d', 'name': 'City', 'pluralName': 'Cities', 'shortName': 'City', 'icon': {'prefix': 'https://ss3.4sqi.net/img/categories_v2/parks_outdoors/neighborhood_', 'suffix': '.png'}, 'primary': True}]",City,50aa9e094b90af0d42d5de0d
35,Saint-Zacharie,4c02274d0d0e0f477ec9009a,83640,Provence-Alpes-Côte,France,FR,43.38382800105539,5.704896926152376,"[{'id': '50aa9e094b90af0d42d5de0d', 'name': 'City', 'pluralName': 'Cities', 'shortName': 'City', 'icon': {'prefix': 'https://ss3.4sqi.net/img/categories_v2/parks_outdoors/neighborhood_', 'suffix': '.png'}, 'primary': True}]",City,50aa9e094b90af0d42d5de0d
36,Miramas,500938aee4b0bab255840aab,,,France,FR,43.57910987679512,4.997331895724463,"[{'id': '50aa9e094b90af0d42d5de0d', 'name': 'City', 'pluralName': 'Cities', 'shortName': 'City', 'icon': {'prefix': 'https://ss3.4sqi.net/img/categories_v2/parks_outdoors/neighborhood_', 'suffix': '.png'}, 'primary': True}]",City,50aa9e094b90af0d42d5de0d
37,Les Lecques,53383fc2498e9aca3d15d7b5,,Provence-Alpes-Côte d'Azur,France,FR,43.16437431231446,5.709296797237226,"[{'id': '50aa9e094b90af0d42d5de0d', 'name': 'City', 'pluralName': 'Cities', 'shortName': 'City', 'icon': {'prefix': 'https://ss3.4sqi.net/img/categories_v2/parks_outdoors/neighborhood_', 'suffix': '.png'}, 'primary': True}]",City,50aa9e094b90af0d42d5de0d
38,Ollioules,5033bce2e4b09438462c3424,,,France,FR,43.12317552914638,5.87592373867469,"[{'id': '50aa9e094b90af0d42d5de0d', 'name': 'City', 'pluralName': 'Cities', 'shortName': 'City', 'icon': {'prefix': 'https://ss3.4sqi.net/img/categories_v2/parks_outdoors/neighborhood_', 'suffix': '.png'}, 'primary': True}]",City,50aa9e094b90af0d42d5de0d
39,Carry-le-Rouet,4c1b448c55e4c9b63a084923,13620,PACA,France,FR,43.33122990300566,5.153991669018042,"[{'id': '50aa9e094b90af0d42d5de0d', 'name': 'City', 'pluralName': 'Cities', 'shortName': 'City', 'icon': {'prefix': 'https://ss3.4sqi.net/img/categories_v2/parks_outdoors/neighborhood_', 'suffix': '.png'}, 'primary': True}]",City,50aa9e094b90af0d42d5de0d
40,Plan de Campagne,4c179f30216fc9b640b18f96,13480,Provence-Alpes-Côte d'Azur,France,FR,43.41843507839466,5.361649757994863,"[{'id': '50aa9e094b90af0d42d5de0d', 'name': 'City', 'pluralName': 'Cities', 'shortName': 'City', 'icon': {'prefix': 'https://ss3.4sqi.net/img/categories_v2/parks_outdoors/neighborhood_', 'suffix': '.png'}, 'primary': True}]",City,50aa9e094b90af0d42d5de0d
41,Gardanne,5380215c498e6545a6aad105,,Provence-Alpes-Côte d'Azur,France,FR,43.45221663782518,5.464857045312833,"[{'id': '50aa9e094b90af0d42d5de0d', 'name': 'City', 'pluralName': 'Cities', 'shortName': 'City', 'icon': {'prefix': 'https://ss3.4sqi.net/img/categories_v2/parks_outdoors/neighborhood_', 'suffix': '.png'}, 'primary': True}]",City,50aa9e094b90af0d42d5de0d
42,Seillons-Source-d'Argens,53403c1d498ec097e47ca90b,,Provence-Alpes-Côte d'Azur,France,FR,43.501066988258465,5.875480446247979,"[{'id': '50aa9e094b90af0d42d5de0d', 'name': 'City', 'pluralName': 'Cities', 'shortName': 'City', 'icon': {'prefix': 'https://ss3.4sqi.net/img/categories_v2/parks_outdoors/neighborhood_', 'suffix': '.png'}, 'primary': True}]",City,50aa9e094b90af0d42d5de0d
43,Saint-Cannat,5361dff9498ea17aeb1e8ff3,,Provence-Alpes-Côte d'Azur,France,FR,43.62359253709364,5.302228167390626,"[{'id': '50aa9e094b90af0d42d5de0d', 'name': 'City', 'pluralName': 'Cities', 'shortName': 'City', 'icon': {'prefix': 'https://ss3.4sqi.net/img/categories_v2/parks_outdoors/neighborhood_', 'suffix': '.png'}, 'primary': True}]",City,50aa9e094b90af0d42d5de0d
44,Plan d'Aups - Sainte-Baume,4c631d1aec94a59321fd2aca,83640,PACA,France,FR,43.326783645652824,5.711491714706284,"[{'id': '50aa9e094b90af0d42d5de0d', 'name': 'City', 'pluralName': 'Cities', 'shortName': 'City', 'icon': {'prefix': 'https://ss3.4sqi.net/img/categories_v2/parks_outdoors/neighborhood_', 'suffix': '.png'}, 'primary': True}]",City,50aa9e094b90af0d42d5de0d
45,Grans,4d8c9669fa943704f0edd2c5,,,France,FR,43.60755927899433,5.0659761551463305,"[{'id': '50aa9e094b90af0d42d5de0d', 'name': 'City', 'pluralName': 'Cities', 'shortName': 'City', 'icon': {'prefix': 'https://ss3.4sqi.net/img/categories_v2/parks_outdoors/neighborhood_', 'suffix': '.png'}, 'primary': True}]",City,50aa9e094b90af0d42d5de0d
46,Jouques,533695bf498ecb15a0a14581,,Provence-Alpes-Côte d'Azur,France,FR,43.63684918530734,5.6339530363572194,"[{'id': '50aa9e094b90af0d42d5de0d', 'name': 'City', 'pluralName': 'Cities', 'shortName': 'City', 'icon': {'prefix': 'https://ss3.4sqi.net/img/categories_v2/parks_outdoors/neighborhood_', 'suffix': '.png'}, 'primary': True}]",City,50aa9e094b90af0d42d5de0d
47,La Gavotte,534408e6498e62f9d99154e1,,Provence-Alpes-Côte d'Azur,France,FR,43.38317740524321,5.346674947442798,"[{'id': '50aa9e094b90af0d42d5de0d', 'name': 'City', 'pluralName': 'Cities', 'shortName': 'City', 'icon': {'prefix': 'https://ss3.4sqi.net/img/categories_v2/parks_outdoors/neighborhood_', 'suffix': '.png'}, 'primary': True}]",City,50aa9e094b90af0d42d5de0d
48,Lambesc,4c6c02c499b9236ae351e1c9,13410,Provence-Alpes-Côte d'Azur,France,FR,43.65326092761449,5.263370533712607,"[{'id': '50aa9e094b90af0d42d5de0d', 'name': 'City', 'pluralName': 'Cities', 'shortName': 'City', 'icon': {'prefix': 'https://ss3.4sqi.net/img/categories_v2/parks_outdoors/neighborhood_', 'suffix': '.png'}, 'primary': True}]",City,50aa9e094b90af0d42d5de0d
49,Six Fours Var,4d8b24874757721e8ee5c469,,,France,FR,43.093588499535805,5.812272621686986,"[{'id': '50aa9e094b90af0d42d5de0d', 'name': 'City', 'pluralName': 'Cities', 'shortName': 'City', 'icon': {'prefix': 'https://ss3.4sqi.net/img/categories_v2/parks_outdoors/neighborhood_', 'suffix': '.png'}, 'primary': True}]",City,50aa9e094b90af0d42d5de0d
