,name,id,postalCode,state,country,cc,lat,lng,categories,primary_category_name,primary_category_id
0,Paris,50dbd18d498eb594ef575b0a,75000,Île-de-France,France,FR,48.857005585002405,2.351490065921098,"[{'id': '50aa9e094b90af0d42d5de0d', 'name': 'City', 'pluralName': 'Cities', 'shortName': 'City', 'icon': {'prefix': 'https://ss3.4sqi.net/img/categories_v2/parks_outdoors/neighborhood_', 'suffix': '.png'}, 'primary': True}]",City,50aa9e094b90af0d42d5de0d
1,Levallois-Perret,4ccc49e754f0b1f79d4515ca,92300,Île-de-France,France,FR,48.89398481943839,2.2882950581224715,"[{'id': '50aa9e094b90af0d42d5de0d', 'name': 'City', 'pluralName': 'Cities', 'shortName': 'City', 'icon': {'prefix': 'https://ss3.4sqi.net/img/categories_v2/parks_outdoors/neighborhood_', 'suffix': '.png'}, 'primary': True}]",City,50aa9e094b90af0d42d5de0d
2,Versailles,4b92dff4f964a5207e2334e3,78000,Île-de-France,France,FR,48.803471664383096,2.1268844604492188,"[{'id': '50aa9e094b90af0d42d5de0d', 'name': 'City', 'pluralName': 'Cities', 'shortName': 'City', 'icon': {'prefix': 'https://ss3.4sqi.net/img/categories_v2/parks_outdoors/neighborhood_', 'suffix': '.png'}, 'primary': True}]",City,50aa9e094b90af0d42d5de0d
3,Neuilly-sur-Seine,509f8996e4b05e06b5811a17,92200,Île-de-France,France,FR,48.88492435891923,2.269470691680908,"[{'id': '50aa9e094b90af0d42d5de0d', 'name': 'City', 'pluralName': 'Cities', 'shortName': 'City', 'icon': {'prefix': 'https://ss3.4sqi.net/img/categories_v2/parks_outdoors/neighborhood_', 'suffix': '.png'}, 'primary': True}]",City,50aa9e094b90af0d42d5de0d
4,Boulogne-Billancourt,4c80bf1e74d7b60c080670d8,92100,Île-de-France,France,FR,48.8341414134033,2.2426862435696693,"[{'id': '50aa9e094b90af0d42d5de0d', 'name': 'City', 'pluralName': 'Cities', 'shortName': 'City', 'icon': {'prefix': 'https://ss3.4sqi.net/img/categories_v2/parks_outdoors/neighborhood_', 'suffix': '.png'}, 'primary': True}]",City,50aa9e094b90af0d42d5de0d
5,Suresnes,4ba873c0f964a5209ddb39e3,92150,Île-de-France,France,FR,48.87077515451886,2.224047540495909,"[{'id': '50aa9e094b90af0d42d5de0d', 'name': 'City', 'pluralName': 'Cities', 'shortName': 'City', 'icon': {'prefix': 'https://ss3.4sqi.net/img/categories_v2/parks_outdoors/neighborhood_', 'suffix': '.png'}, 'primary': True}]",City,50aa9e094b90af0d42d5de0d
6,Montreuil,4d98d251daec224b4745523e,93100,Île-de-France,France,FR,48.8586000573438,2.43354879503081,"[{'id': '50aa9e094b90af0d42d5de0d', 'name': 'City', 'pluralName': 'Cities', 'shortName': 'City', 'icon': {'prefix': 'https://ss3.4sqi.net/img/categories_v2/parks_outdoors/neighborhood_', 'suffix': '.png'}, 'primary': True}]",City,50aa9e094b90af0d42d5de0d
7,Puteaux,4f8f643ee4b063d0a02c83e4,92800,Île-de-France,France,FR,48.88341607300496,2.2400514407820697,"[{'id': '50aa9e094b90af0d42d5de0d', 'name': 'City', 'pluralName': 'Cities', 'shortName': 'City', 'icon': {'prefix': 'https://ss3.4sqi.net/img/categories_v2/parks_outdoors/neighborhood_', 'suffix': '.png'}, 'primary': True}]",City,50aa9e094b90af0d42d5de0d
8,Courbevoie,512dd5ace4b0ea531df47db2,92400,Île-de-France,France,FR,48.89727721465483,2.253925132525889,"[{'id': '50aa9e094b90af0d42d5de0d', 'name': 'City', 'pluralName': 'Cities', 'shortName': 'City', 'icon': {'prefix': 'https://ss3.4sqi.net/img/categories_v2/parks_outdoors/neighborhood_', 'suffix': '.png'}, 'primary': True}]",City,50aa9e094b90af0d42d5de0d
9,Saint-Denis,507836d4e4b0da23847eac9e,93200,Île-de-France,France,FR,48.922939513704726,2.356335220081729,"[{'id': '50aa9e094b90af0d42d5de0d', 'name': 'City', 'pluralName': 'Cities', 'shortName': 'City', 'icon': {'prefix': 'https://ss3.4sqi.net/img/categories_v2/parks_outdoors/neighborhood_', 'suffix': '.png'}, 'primary': True}]",City,50aa9e094b90af0d42d5de0d
10,La Garenne-Colombes,4bdad79463c5c9b601242568,92250,Île-de-France,France,FR,48.90696102328566,2.2473664988953934,"[{'id': '50aa9e094b90af0d42d5de0d', 'name': 'City', 'pluralName': 'Cities', 'shortName': 'City', 'icon': {'prefix': 'https://ss3.4sqi.net/img/categories_v2/parks_outdoors/neighborhood_', 'suffix': '.png'}, 'primary': True}]",City,50aa9e094b90af0d42d5de0d
11,Saint-Ouen,4d3e786a05b8721ef3339e37,93400,Île-de-France,France,FR,48.90628895162065,2.333213249335408,"[{'id': '50aa9e094b90af0d42d5de0d', 'name': 'City', 'pluralName': 'Cities', 'shortName': 'City', 'icon': {'prefix': 'https://ss3.4sqi.net/img/categories_v2/parks_outdoors/neighborhood_', 'suffix': '.png'}, 'primary': True}]",City,50aa9e094b90af0d42d5de0d
12,Issy-les-Moulineaux,4c079bfd8b4520a15f1d8797,92130,Île-de-France,France,FR,48.82522414349,2.2675451128070256,"[{'id': '50aa9e094b90af0d42d5de0d', 'name': 'City', 'pluralName': 'Cities', 'shortName': 'City', 'icon': {'prefix': 'https://ss3.4sqi.net/img/categories_v2/parks_outdoors/neighborhood_', 'suffix': '.png'}, 'primary': True}]",City,50aa9e094b90af0d42d5de0d
13,Arcueil,4fb28b3ee4b0e2be9a5d883e,94110,Île-de-France,France,FR,48.799938298880214,2.3324489593505855,"[{'id': '50aa9e094b90af0d42d5de0d', 'name': 'City', 'pluralName': 'Cities', 'shortName': 'City', 'icon': {'prefix': 'https://ss3.4sqi.net/img/categories_v2/parks_outdoors/neighborhood_', 'suffix': '.png'}, 'primary': True}]",City,50aa9e094b90af0d42d5de0d
14,Vincennes,4c45fa8af1b5c9b6e02978ef,94300,Île-de-France,France,FR,48.84584451748112,2.434384369949027,"[{'id': '50aa9e094b90af0d42d5de0d', 'name': 'City', 'pluralName': 'Cities', 'shortName': 'City', 'icon': {'prefix': 'https://ss3.4sqi.net/img/categories_v2/parks_outdoors/neighborhood_', 'suffix': '.png'}, 'primary': True}]",City,50aa9e094b90af0d42d5de0d
15,Colombes,4d973df1e07ea35da8a8d302,92700,Île-de-France,France,FR,48.92434885899706,2.2526939545857014,"[{'id': '50aa9e094b90af0d42d5de0d', 'name': 'City', 'pluralName': 'Cities', 'shortName': 'City', 'icon': {'prefix': 'https://ss3.4sqi.net/img/categories_v2/parks_outdoors/neighborhood_', 'suffix': '.png'}, 'primary': True}]",City,50aa9e094b90af0d42d5de0d
16,Le Chesnay,4c9f31ec8afca09362e70716,78150,Île-de-France,France,FR,48.8233356400859,2.124038314604476,"[{'id': '50aa9e094b90af0d42d5de0d', 'name': 'City', 'pluralName': 'Cities', 'shortName': 'City', 'icon': {'prefix': 'https://ss3.4sqi.net/img/categories_v2/parks_outdoors/neighborhood_', 'suffix': '.png'}, 'primary': True}]",City,50aa9e094b90af0d42d5de0d
17,Asnières-sur-Seine,4b88e0b8f964a5209c1132e3,92600,Île-de-France,France,FR,48.91104924538311,2.2861647605895996,"[{'id': '50aa9e094b90af0d42d5de0d', 'name': 'City', 'pluralName': 'Cities', 'shortName': 'City', 'icon': {'prefix': 'https://ss3.4sqi.net/img/categories_v2/parks_outdoors/neighborhood_', 'suffix': '.png'}, 'primary': True}]",City,50aa9e094b90af0d42d5de0d
18,Juvisy-sur-Orge,514d77c9e4b091940984abd6,91260,Île-de-France,France,FR,48.68977907212263,2.3827602340515157,"[{'id': '50aa9e094b90af0d42d5de0d', 'name': 'City', 'pluralName': 'Cities', 'shortName': 'City', 'icon': {'prefix': 'https://ss3.4sqi.net/img/categories_v2/parks_outdoors/neighborhood_', 'suffix': '.png'}, 'primary': True}]",City,50aa9e094b90af0d42d5de0d
19,Villeneuve-Saint-Georges,4e8c8e04722e0db2302ca1b2,94190,Île-de-France,France,FR,48.7299263989309,2.4475479125976562,"[{'id': '50aa9e094b90af0d42d5de0d', 'name': 'City', 'pluralName': 'Cities', 'shortName': 'City', 'icon': {'prefix': 'https://ss3.4sqi.net/img/categories_v2/parks_outdoors/neighborhood_', 'suffix': '.png'}, 'primary': True}]",City,50aa9e094b90af0d42d5de0d
20,Chelles,4c547cd0479fc928c4973893,77500,Île-de-France,France,FR,48.88114273686867,2.5926876068115234,"[{'id': '50aa9e094b90af0d42d5de0d', 'name': 'City', 'pluralName': 'Cities', 'shortName': 'City', 'icon': {'prefix': 'https://ss3.4sqi.net/img/categories_v2/parks_outdoors/neighborhood_', 'suffix': '.png'}, 'primary': True}]",City,50aa9e094b90af0d42d5de0d
21,Tremblay-en-France,4b941679f964a5202b6734e3,93290,Île-de-France,France,FR,48.98123095755844,2.558612823486328,"[{'id': '50aa9e094b90af0d42d5de0d', 'name': 'City', 'pluralName': 'Cities', 'shortName': 'City', 'icon': {'prefix': 'https://ss3.4sqi.net/img/categories_v2/parks_outdoors/neighborhood_', 'suffix': '.png'}, 'primary': True}]",City,50aa9e094b90af0d42d5de0d
22,Maisons-Alfort,4b92df01f964a5202e2334e3,94700,Île-de-France,France,FR,48.79985349504944,2.427978515625,"[{'id': '50aa9e094b90af0d42d5de0d', 'name': 'City', 'pluralName': 'Cities', 'shortName': 'City', 'icon': {'prefix': 'https://ss3.4sqi.net/img/categories_v2/parks_outdoors/neighborhood_', 'suffix': '.png'}, 'primary': True}]",City,50aa9e094b90af0d42d5de0d
23,Élancourt,4bd4a32ecfa7b713438624da,78990,Île-de-France,France,FR,48.768480567002634,1.9564002346220197,"[{'id': '50aa9e094b90af0d42d5de0d', 'name': 'City', 'pluralName': 'Cities', 'shortName': 'City', 'icon': {'prefix': 'https://ss3.4sqi.net/img/categories_v2/parks_outdoors/neighborhood_', 'suffix': '.png'}, 'primary': True}]",City,50aa9e094b90af0d42d5de0d
24,Évry,4f476f86e4b03377e662ddc7,91000,Île-de-France,France,FR,48.625639504494096,2.4291452191612715,"[{'id': '50aa9e094b90af0d42d5de0d', 'name': 'City', 'pluralName': 'Cities', 'shortName': 'City', 'icon': {'prefix': 'https://ss3.4sqi.net/img/categories_v2/parks_outdoors/neighborhood_', 'suffix': '.png'}, 'primary': True}]",City,50aa9e094b90af0d42d5de0d
25,Épinay-sous-Sénart,4f3612f6e4b0d3ab500aaf33,91860,Île-de-France,France,FR,48.6894164212173,2.5118565559387207,"[{'id': '50aa9e094b90af0d42d5de0d', 'name': 'City', 'pluralName': 'Cities', 'shortName': 'City', 'icon': {'prefix': 'https://ss3.4sqi.net/img/categories_v2/parks_outdoors/neighborhood_', 'suffix': '.png'}, 'primary': True}]",City,50aa9e094b90af0d42d5de0d
26,Gennevilliers,4ec76625722e1437963f81ed,92230,Île-de-France,France,FR,48.93325594106118,2.300434112548828,"[{'id': '50aa9e094b90af0d42d5de0d', 'name': 'City', 'pluralName': 'Cities', 'shortName': 'City', 'icon': {'prefix': 'https://ss3.4sqi.net/img/categories_v2/parks_outdoors/neighborhood_', 'suffix': '.png'}, 'primary': True}]",City,50aa9e094b90af0d42d5de0d
27,Le Vésinet,4bed6308e3562d7fa8e6fef8,78110,Île-de-France,France,FR,48.89189419815932,2.1320444879618634,"[{'id': '50aa9e094b90af0d42d5de0d', 'name': 'City', 'pluralName': 'Cities', 'shortName': 'City', 'icon': {'prefix': 'https://ss3.4sqi.net/img/categories_v2/parks_outdoors/neighborhood_', 'suffix': '.png'}, 'primary': True}]",City,50aa9e094b90af0d42d5de0d
28,Serris,4d531f5cd3dc236a99554a67,77700,Île-de-France,France,FR,48.84398862712389,2.787201404571533,"[{'id': '50aa9e094b90af0d42d5de0d', 'name': 'City', 'pluralName': 'Cities', 'shortName': 'City', 'icon': {'prefix': 'https://ss3.4sqi.net/img/categories_v2/parks_outdoors/neighborhood_', 'suffix': '.png'}, 'primary': True}]",City,50aa9e094b90af0d42d5de0d
29,Bailly-Romainvilliers,4c71b7320e23b1f7b9181cdc,77700,Île-de-France,France,FR,48.84734944157775,2.8234004974365234,"[{'id': '50aa9e094b90af0d42d5de0d', 'name': 'City', 'pluralName': 'Cities', 'shortName': 'City', 'icon': {'prefix': 'https://ss3.4sqi.net/img/categories_v2/parks_outdoors/neighborhood_', 'suffix': '.png'}, 'primary': True}]",City,50aa9e094b90af0d42d5de0d
30,Le Plessis-Robinson,4d154eb1302da1cd1709af93,92350,Île-de-France,France,FR,48.77785435353483,2.259495051200102,"[{'id': '50aa9e094b90af0d42d5de0d', 'name': 'City', 'pluralName': 'Cities', 'shortName': 'City', 'icon': {'prefix': 'https://ss3.4sqi.net/img/categories_v2/parks_outdoors/neighborhood_', 'suffix': '.png'}, 'primary': True}]",City,50aa9e094b90af0d42d5de0d
31,Montigny-le-Bretonneux,517007a5e4b068bd5ec427ae,78180,Île-de-France,France,FR,48.78698745750119,2.043335415836984,"[{'id': '50aa9e094b90af0d42d5de0d', 'name': 'City', 'pluralName': 'Cities', 'shortName': 'City', 'icon': {'prefix': 'https://ss3.4sqi.net/img/categories_v2/parks_outdoors/neighborhood_', 'suffix': '.png'}, 'primary': True}]",City,50aa9e094b90af0d42d5de0d
32,Montrouge,4d4d499a9ee1a35d4dea23df,92120,Île-de-France,France,FR,48.81742263293216,2.3190187699953535,"[{'id': '50aa9e094b90af0d42d5de0d', 'name': 'City', 'pluralName': 'Cities', 'shortName': 'City', 'icon': {'prefix': 'https://ss3.4sqi.net/img/categories_v2/parks_outdoors/neighborhood_', 'suffix': '.png'}, 'primary': True}]",City,50aa9e094b90af0d42d5de0d
33,Rosny-sous-Bois,4c9b166b80958cfab06c48d4,93110,Île-de-France,France,FR,48.87250602041687,2.4932098388671875,"[{'id': '50aa9e094b90af0d42d5de0d', 'name': 'City', 'pluralName': 'Cities', 'shortName': 'City', 'icon': {'prefix': 'https://ss3.4sqi.net/img/categories_v2/parks_outdoors/neighborhood_', 'suffix': '.png'}, 'primary': True}]",City,50aa9e094b90af0d42d5de0d
34,Draveil,4d4426502e326ea869fbe0a6,91210,Île-de-France,France,FR,48.684202884799156,2.412547796713025,"[{'id': '50aa9e094b90af0d42d5de0d', 'name': 'City', 'pluralName': 'Cities', 'shortName': 'City', 'icon': {'prefix': 'https://ss3.4sqi.net/img/categories_v2/parks_outdoors/neighborhood_', 'suffix': '.png'}, 'primary': True}]",City,50aa9e094b90af0d42d5de0d
35,Les Clayes-sous-Bois,4cad7210bf70236aa2dbfff8,78340,Île-de-France,France,FR,48.82375930125767,1.9831758968053759,"[{'id': '50aa9e094b90af0d42d5de0d', 'name': 'City', 'pluralName': 'Cities', 'shortName': 'City', 'icon': {'prefix': 'https://ss3.4sqi.net/img/categories_v2/parks_outdoors/neighborhood_', 'suffix': '.png'}, 'primary': True}]",City,50aa9e094b90af0d42d5de0d
36,Bezons,4c802387d92ea0932f213572,95870,Île-de-France,France,FR,48.92486537302557,2.2133899985405145,"[{'id': '50aa9e094b90af0d42d5de0d', 'name': 'City', 'pluralName': 'Cities', 'shortName': 'City', 'icon': {'prefix': 'https://ss3.4sqi.net/img/categories_v2/parks_outdoors/neighborhood_', 'suffix': '.png'}, 'primary': True}]",City,50aa9e094b90af0d42d5de0d
37,Lésigny,4b6ddcfdf964a520a9962ce3,77150,Île-de-France,France,FR,48.74615682683639,2.6142364430861913,"[{'id': '50aa9e094b90af0d42d5de0d', 'name': 'City', 'pluralName': 'Cities', 'shortName': 'City', 'icon': {'prefix': 'https://ss3.4sqi.net/img/categories_v2/parks_outdoors/neighborhood_', 'suffix': '.png'}, 'primary': True}]",City,50aa9e094b90af0d42d5de0d
38,Rueil-Malmaison,4bedb215767dc9b66f54d3e9,92500,Île-de-France,France,FR,48.8822857199533,2.1826744079589844,"[{'id': '50aa9e094b90af0d42d5de0d', 'name': 'City', 'pluralName': 'Cities', 'shortName': 'City', 'icon': {'prefix': 'https://ss3.4sqi.net/img/categories_v2/parks_outdoors/neighborhood_', 'suffix': '.png'}, 'primary': True}]",City,50aa9e094b90af0d42d5de0d
39,Vélizy-Villacoublay,50671dd9e4b05564fb8494fa,78140,Île-de-France,France,FR,48.78184356752872,2.1940469741821285,"[{'id': '50aa9e094b90af0d42d5de0d', 'name': 'City', 'pluralName': 'Cities', 'shortName': 'City', 'icon': {'prefix': 'https://ss3.4sqi.net/img/categories_v2/parks_outdoors/neighborhood_', 'suffix': '.png'}, 'primary': True}]",City,50aa9e094b90af0d42d5de0d
40,Massy,4dd96be4e4cd37c893dc8180,91300,Île-de-France,France,FR,48.72790238230588,2.273526191711426,"[{'id': '50aa9e094b90af0d42d5de0d', 'name': 'City', 'pluralName': 'Cities', 'shortName': 'City', 'icon': {'prefix': 'https://ss3.4sqi.net/img/categories_v2/parks_outdoors/neighborhood_', 'suffix': '.png'}, 'primary': True}]",City,50aa9e094b90af0d42d5de0d
41,Savigny-sur-Orge,50717b51e4b00022a1d2fa6c,91600,Île-de-France,France,FR,48.67606243962922,2.3518739932092143,"[{'id': '50aa9e094b90af0d42d5de0d', 'name': 'City', 'pluralName': 'Cities', 'shortName': 'City', 'icon': {'prefix': 'https://ss3.4sqi.net/img/categories_v2/parks_outdoors/neighborhood_', 'suffix': '.png'}, 'primary': True}]",City,50aa9e094b90af0d42d5de0d
42,Le Pecq,4c7aa109bd346dcbc70af9ef,78230,Île-de-France,France,FR,48.89340374786879,2.1028733253479004,"[{'id': '50aa9e094b90af0d42d5de0d', 'name': 'City', 'pluralName': 'Cities', 'shortName': 'City', 'icon': {'prefix': 'https://ss3.4sqi.net/img/categories_v2/parks_outdoors/neighborhood_', 'suffix': '.png'}, 'primary': True}]",City,50aa9e094b90af0d42d5de0d
43,Villepinte,4f073f98e4b0cc066af68035,93420,Île-de-France,France,FR,48.96255366135401,2.5322628021240234,"[{'id': '50aa9e094b90af0d42d5de0d', 'name': 'City', 'pluralName': 'Cities', 'shortName': 'City', 'icon': {'prefix': 'https://ss3.4sqi.net/img/categories_v2/parks_outdoors/neighborhood_', 'suffix': '.png'}, 'primary': True}]",City,50aa9e094b90af0d42d5de0d
44,Villejuif,4edb79546da1642c5dfa3859,94800,Île-de-France,France,FR,48.79309688599747,2.3607764266421514,"[{'id': '50aa9e094b90af0d42d5de0d', 'name': 'City', 'pluralName': 'Cities', 'shortName': 'City', 'icon': {'prefix': 'https://ss3.4sqi.net/img/categories_v2/parks_outdoors/neighborhood_', 'suffix': '.png'}, 'primary': True}]",City,50aa9e094b90af0d42d5de0d
45,La Courneuve,4c4e996cd667d13a59eda8a0,93120,Île-de-France,France,FR,48.9251034231533,2.3918317653214207,"[{'id': '50aa9e094b90af0d42d5de0d', 'name': 'City', 'pluralName': 'Cities', 'shortName': 'City', 'icon': {'prefix': 'https://ss3.4sqi.net/img/categories_v2/parks_outdoors/neighborhood_', 'suffix': '.png'}, 'primary': True}]",City,50aa9e094b90af0d42d5de0d
46,Aubervilliers,4b534c21f964a520139627e3,93300,Île-de-France,France,FR,48.91690149154729,2.3836469650268555,"[{'id': '50aa9e094b90af0d42d5de0d', 'name': 'City', 'pluralName': 'Cities', 'shortName': 'City', 'icon': {'prefix': 'https://ss3.4sqi.net/img/categories_v2/parks_outdoors/neighborhood_', 'suffix': '.png'}, 'primary': True}]",City,50aa9e094b90af0d42d5de0d
47,Créteil,4ef03c22f9ab3edffb8f9bbd,94000,Île-de-France,France,FR,48.78320089873878,2.4669456481933594,"[{'id': '50aa9e094b90af0d42d5de0d', 'name': 'City', 'pluralName': 'Cities', 'shortName': 'City', 'icon': {'prefix': 'https://ss3.4sqi.net/img/categories_v2/parks_outdoors/neighborhood_', 'suffix': '.png'}, 'primary': True}]",City,50aa9e094b90af0d42d5de0d
48,Paray-Vieille-Poste,4ef5c06a30f894d8670a6846,91550,Île-de-France,France,FR,48.71384525048727,2.3626399040222164,"[{'id': '50aa9e094b90af0d42d5de0d', 'name': 'City', 'pluralName': 'Cities', 'shortName': 'City', 'icon': {'prefix': 'https://ss3.4sqi.net/img/categories_v2/parks_outdoors/neighborhood_', 'suffix': '.png'}, 'primary': True}]",City,50aa9e094b90af0d42d5de0d
49,Corbeil-Essonnes,4f008f48722e0f0772a52831,91100,Île-de-France,France,FR,48.6061136294277,2.487459182739258,"[{'id': '50aa9e094b90af0d42d5de0d', 'name': 'City', 'pluralName': 'Cities', 'shortName': 'City', 'icon': {'prefix': 'https://ss3.4sqi.net/img/categories_v2/parks_outdoors/neighborhood_', 'suffix': '.png'}, 'primary': True}]",City,50aa9e094b90af0d42d5de0d
